[{"OBJECT_NAME":"ONEWEB-0520","OBJECT_ID":"2022-138AB","EPOCH":"2026-03-09T17:36:59.960448","MEAN_MOTION":13.19725271,"ECCENTRICITY":0.00017051,"INCLINATION":87.9235,"RA_OF_ASC_NODE":324.7788,"ARG_OF_PERICENTER":89.3661,"MEAN_ANOMALY":270.7667,"EPHEMERIS_TYPE":0,"CLASSIFICATION_TYPE":"U","NORAD_CAT_ID":54138,"ELEMENT_SET_NO":999,"REV_AT_EPOCH":16370,"BSTAR":-0.00024641863,"MEAN_MOTION_DOT":-8.6e-7,"MEAN_MOTION_DDOT":0},{"OBJECT_NAME":"SL-14 DEB","OBJECT_ID":"1991-056DR","EPOCH":"2026-03-08T19:43:50.264256","MEAN_MOTION":13.20393138,"ECCENTRICITY":0.00134558,"INCLINATION":82.5986,"RA_OF_ASC_NODE":214.3324,"ARG_OF_PERICENTER":222.1757,"MEAN_ANOMALY":137.8333,"EPHEMERIS_TYPE":0,"CLASSIFICATION_TYPE":"U","NORAD_CAT_ID":47091,"ELEMENT_SET_NO":999,"REV_AT_EPOCH":25739,"BSTAR":0.0015116276,"MEAN_MOTION_DOT":6.24e-6,"MEAN_MOTION_DDOT":0}]
